[{"OBJECT_NAME":"STARLINK-1770","OBJECT_ID":"2020-062BL","EPOCH":"2026-03-09T20:41:02.162976","MEAN_MOTION":15.64540917,"ECCENTRICITY":0.00022753,"INCLINATION":53.0424,"RA_OF_ASC_NODE":314.8666,"ARG_OF_PERICENTER":239.7768,"MEAN_ANOMALY":120.3022,"EPHEMERIS_TYPE":0,"CLASSIFICATION_TYPE":"U","NORAD_CAT_ID":46383,"ELEMENT_SET_NO":999,"REV_AT_EPOCH":30519,"BSTAR":0.0009673021,"MEAN_MOTION_DOT":0.00095604,"MEAN_MOTION_DDOT":0},{"OBJECT_NAME":"JILIN-1 GAOFEN 3D30","OBJECT_ID":"2022-048E","EPOCH":"2026-03-09T21:57:40.075488","MEAN_MOTION":15.65645396,"ECCENTRICITY":0.00037661,"INCLINATION":97.5601,"RA_OF_ASC_NODE":177.6006,"ARG_OF_PERICENTER":36.1292,"MEAN_ANOMALY":324.0221,"EPHEMERIS_TYPE":0,"CLASSIFICATION_TYPE":"U","NORAD_CAT_ID":52447,"ELEMENT_SET_NO":999,"REV_AT_EPOCH":21410,"BSTAR":0.0010483888,"MEAN_MOTION_DOT":0.00106545,"MEAN_MOTION_DDOT":0}]
